{"type": "FeatureCollection", "features": [ {"type": "Feature", "properties": {"norad_id": 37925, "name": "FENGYUN 1C DEB", "group": "fengyun-1c-debris", "lat": 64.03843554937981, "lon": 62.40040191755856, "alt_km": 656.2744147318035, "timestamp": "2025-12-19T04:59:48.595521+00:00", "meta": {"OBJECT_NAME": "FENGYUN 1C DEB", "OBJECT_ID": "1999-025EPA", "EPOCH": "2025-12-17T21:39:42.022944", "MEAN_MOTION": 14.80410636, "ECCENTRICITY": 0.00562547, "INCLINATION": 99.0862, "RA_OF_ASC_NODE": 221.7351, "ARG_OF_PERICENTER": 326.9012, "MEAN_ANOMALY": 32.868, "EPHEMERIS_TYPE": 0, "CLASSIFICATION_TYPE": "U", "NORAD_CAT_ID": 37925, "ELEMENT_SET_NO": 999, "REV_AT_EPOCH": 65759, "BSTAR": 0.0012891872, "MEAN_MOTION_DOT": 0.00010061, "MEAN_MOTION_DDOT": 0}, "tle": {"line1": "1 37925U 99025EPA 25351.90256971  .00010061  00000+0  12892-2 0  9997", "line2": "2 37925  99.0862 221.7351 0056254 326.9012  32.8680 14.80410636657590"}}, "geometry": {"type": "Point", "coordinates": [62.40040191755856, 64.03843554937981]}}, {"type": "Feature", "properties": {"norad_id": 37926, "name": "FENGYUN 1C DEB", "group": "fengyun-1c-debris", "lat": 79.81068643997499, "lon": -64.98435266867403, "alt_km": 815.2276934836864, "timestamp": "2025-12-19T04:59:48.595531+00:00", "meta": {"OBJECT_NAME": "FENGYUN 1C DEB", "OBJECT_ID": "1999-025EPB", "EPOCH": "2025-12-18T15:46:47.180064", "MEAN_MOTION": 14.24258784, "ECCENTRICITY": 0.00544254, "INCLINATION": 98.7241, "RA_OF_ASC_NODE": 55.7854, "ARG_OF_PERICENTER": 204.4914, "MEAN_ANOMALY": 309.2863, "EPHEMERIS_TYPE": 0, "CLASSIFICATION_TYPE": "U", "NORAD_CAT_ID": 37926, "ELEMENT_SET_NO": 999, "REV_AT_EPOCH": 74354, "BSTAR": 0.0011797271, "MEAN_MOTION_DOT": 2.721e-05, "MEAN_MOTION_DDOT": 0}, "tle": {"line1": "1 37926U 99025EPB 25352.65749051  .00002721  00000+0  11797-2 0  9994", "line2": "2 37926  98.7241  55.7854 0054425 204.4914 309.2863 14.24258784743547"}}, "geometry": {"type": "Point", "coordinates": [-64.98435266867403, 79.81068643997499]}}, {"type": "Feature", "properties": {"norad_id": 37927, "name": "FENGYUN 1C DEB", "group": "fengyun-1c-debris", "lat": 81.08671881684049, "lon": 38.72786133485212, "alt_km": 652.7417042512043, "timestamp": "2025-12-19T04:59:48.595541+00:00", "meta": {"OBJECT_NAME": "FENGYUN 1C DEB", "OBJECT_ID": "1999-025EPC", "EPOCH": "2025-12-17T05:16:20.802144", "MEAN_MOTION": 14.71959072, "ECCENTRICITY": 0.0008325, "INCLINATION": 98.8067, "RA_OF_ASC_NODE": 135.2699, "ARG_OF_PERICENTER": 262.0279, "MEAN_ANOMALY": 97.9981, "EPHEMERIS_TYPE": 0, "CLASSIFICATION_TYPE": "U", "NORAD_CAT_ID": 37927, "ELEMENT_SET_NO": 999, "REV_AT_EPOCH": 65182, "BSTAR": 0.0033385946, "MEAN_MOTION_DOT": 0.00020951, "MEAN_MOTION_DDOT": 0}, "tle": {"line1": "1 37927U 99025EPC 25351.21968521  .00020951  00000+0  33386-2 0  9994", "line2": "2 37927  98.8067 135.2699 0008325 262.0279  97.9981 14.71959072651829"}}, "geometry": {"type": "Point", "coordinates": [38.72786133485212, 81.08671881684049]}}, {"type": "Feature", "properties": {"norad_id": 37928, "name": "FENGYUN 1C DEB", "group": "fengyun-1c-debris", "lat": -58.46030108806504, "lon": -117.14295459357474, "alt_km": 760.1011610547594, "timestamp": "2025-12-19T04:59:48.595551+00:00", "meta": {"OBJECT_NAME": "FENGYUN 1C DEB", "OBJECT_ID": "1999-025EPD", "EPOCH": "2025-12-15T09:22:08.363712", "MEAN_MOTION": 14.37112428, "ECCENTRICITY": 0.00730461, "INCLINATION": 98.9158, "RA_OF_ASC_NODE": 224.0834, "ARG_OF_PERICENTER": 25.3937, "MEAN_ANOMALY": 335.0809, "EPHEMERIS_TYPE": 0, "CLASSIFICATION_TYPE": "U", "NORAD_CAT_ID": 37928, "ELEMENT_SET_NO": 999, "REV_AT_EPOCH": 81230, "BSTAR": 0.00052318414, "MEAN_MOTION_DOT": 1.555e-05, "MEAN_MOTION_DDOT": 0}, "tle": {"line1": "1 37928U 99025EPD 25349.39037458  .00001555  00000+0  52318-3 0  9993", "line2": "2 37928  98.9158 224.0834 0073046  25.3937 335.0809 14.37112428812308"}}, "geometry": {"type": "Point", "coordinates": [-117.14295459357474, -58.46030108806504]}}, {"type": "Feature", "properties": {"norad_id": 38116, "name": "FENGYUN 1C DEB", "group": "fengyun-1c-debris", "lat": -34.16833289795415, "lon": -154.16461684697273, "alt_km": 837.8119999259661, "timestamp": "2025-12-19T04:59:48.595561+00:00", "meta": {"OBJECT_NAME": "FENGYUN 1C DEB", "OBJECT_ID": "1999-025EPM", "EPOCH": "2025-12-13T09:07:05.482848", "MEAN_MOTION": 14.17018726, "ECCENTRICITY": 0.00724721, "INCLINATION": 98.7128, "RA_OF_ASC_NODE": 26.1003, "ARG_OF_PERICENTER": 144.8988, "MEAN_ANOMALY": 233.7196, "EPHEMERIS_TYPE": 0, "CLASSIFICATION_TYPE": "U", "NORAD_CAT_ID": 38116, "ELEMENT_SET_NO": 999, "REV_AT_EPOCH": 64494, "BSTAR": 0.00072544359, "MEAN_MOTION_DOT": 1.454e-05, "MEAN_MOTION_DDOT": 0}, "tle": {"line1": "1 38116U 99025EPM 25347.37992457  .00001454  00000+0  72544-3 0  9999", "line2": "2 38116  98.7128  26.1003 0072472 144.8988 233.7196 14.17018726644947"}}, "geometry": {"type": "Point", "coordinates": [-154.16461684697273, -34.16833289795415]}}, {"type": "Feature", "properties": {"norad_id": 38121, "name": "FENGYUN 1C DEB", "group": "fengyun-1c-debris", "lat": -58.07474278986284, "lon": -50.033378100359194, "alt_km": 919.7500428681396, "timestamp": "2025-12-19T04:59:48.595572+00:00", "meta": {"OBJECT_NAME": "FENGYUN 1C DEB", "OBJECT_ID": "1999-025EPS", "EPOCH": "2025-12-13T04:20:01.430304", "MEAN_MOTION": 14.21784212, "ECCENTRICITY": 0.02064826, "INCLINATION": 99.1148, "RA_OF_ASC_NODE": 138.6695, "ARG_OF_PERICENTER": 126.4735, "MEAN_ANOMALY": 235.5664, "EPHEMERIS_TYPE": 0, "CLASSIFICATION_TYPE": "U", "NORAD_CAT_ID": 38121, "ELEMENT_SET_NO": 999, "REV_AT_EPOCH": 83926, "BSTAR": 0.0016630973, "MEAN_MOTION_DOT": 4.5e-05, "MEAN_MOTION_DDOT": 0}, "tle": {"line1": "1 38121U 99025EPS 25347.18057211  .00004500  00000+0  16631-2 0  9993", "line2": "2 38121  99.1148 138.6695 0206482 126.4735 235.5664 14.21784212839268"}}, "geometry": {"type": "Point", "coordinates": [-50.033378100359194, -58.07474278986284]}}, {"type": "Feature", "properties": {"norad_id": 38122, "name": "FENGYUN 1C DEB", "group": "fengyun-1c-debris", "lat": -60.85658783513858, "lon": 10.698150131139435, "alt_km": 909.9346928480973, "timestamp": "2025-12-19T04:59:48.595582+00:00", "meta": {"OBJECT_NAME": "FENGYUN 1C DEB", "OBJECT_ID": "1999-025EPT", "EPOCH": "2025-12-18T10:59:07.874592", "MEAN_MOTION": 14.42665602, "ECCENTRICITY": 0.02280901, "INCLINATION": 98.317, "RA_OF_ASC_NODE": 354.7559, "ARG_OF_PERICENTER": 139.6251, "MEAN_ANOMALY": 222.2123, "EPHEMERIS_TYPE": 0, "CLASSIFICATION_TYPE": "U", "NORAD_CAT_ID": 38122, "ELEMENT_SET_NO": 999, "REV_AT_EPOCH": 67821, "BSTAR": 0.0002815985, "MEAN_MOTION_DOT": 1.231e-05, "MEAN_MOTION_DDOT": 0}, "tle": {"line1": "1 38122U 99025EPT 25352.45773003  .00001231  00000+0  28160-3 0  9993", "line2": "2 38122  98.3170 354.7559 0228090 139.6251 222.2123 14.42665602678216"}}, "geometry": {"type": "Point", "coordinates": [10.698150131139435, -60.85658783513858]}}, {"type": "Feature", "properties": {"norad_id": 38124, "name": "FENGYUN 1C DEB", "group": "fengyun-1c-debris", "lat": 26.8732733441573, "lon": -59.656550829692485, "alt_km": 1131.76377255417, "timestamp": "2025-12-19T04:59:48.595592+00:00", "meta": {"OBJECT_NAME": "FENGYUN 1C DEB", "OBJECT_ID": "1999-025EPV", "EPOCH": "2025-12-13T03:48:53.053632", "MEAN_MOTION": 13.40935403, "ECCENTRICITY": 0.03557245, "INCLINATION": 97.8087, "RA_OF_ASC_NODE": 299.6458, "ARG_OF_PERICENTER": 305.0279, "MEAN_ANOMALY": 51.7953, "EPHEMERIS_TYPE": 0, "CLASSIFICATION_TYPE": "U", "NORAD_CAT_ID": 38124, "ELEMENT_SET_NO": 999, "REV_AT_EPOCH": 54587, "BSTAR": 0.00060323956, "MEAN_MOTION_DOT": 4.51e-06, "MEAN_MOTION_DDOT": 0}, "tle": {"line1": "1 38124U 99025EPV 25347.15894738  .00000451  00000+0  60324-3 0  9996", "line2": "2 38124  97.8087 299.6458 0355724 305.0279  51.7953 13.40935403545875"}}, "geometry": {"type": "Point", "coordinates": [-59.656550829692485, 26.8732733441573]}}, {"type": "Feature", "properties": {"norad_id": 38130, "name": "FENGYUN 1C DEB", "group": "fengyun-1c-debris", "lat": -28.798604633711378, "lon": -140.46887928149766, "alt_km": 826.1220012994436, "timestamp": "2025-12-19T04:59:48.595602+00:00", "meta": {"OBJECT_NAME": "FENGYUN 1C DEB", "OBJECT_ID": "1999-025EQB", "EPOCH": "2025-11-28T09:19:02.490528", "MEAN_MOTION": 13.7720595, "ECCENTRICITY": 0.02085156, "INCLINATION": 98.6035, "RA_OF_ASC_NODE": 25.4413, "ARG_OF_PERICENTER": 263.5047, "MEAN_ANOMALY": 94.2329, "EPHEMERIS_TYPE": 0, "CLASSIFICATION_TYPE": "U", "NORAD_CAT_ID": 38130, "ELEMENT_SET_NO": 999, "REV_AT_EPOCH": 69085, "BSTAR": 0.0016964005, "MEAN_MOTION_DOT": 1.933e-05, "MEAN_MOTION_DDOT": 0}, "tle": {"line1": "1 38130U 99025EQB 25332.38822327  .00001933  00000+0  16964-2 0  9993", "line2": "2 38130  98.6035  25.4413 0208515 263.5047  94.2329 13.77205950690851"}}, "geometry": {"type": "Point", "coordinates": [-140.46887928149766, -28.798604633711378]}}, {"type": "Feature", "properties": {"norad_id": 38135, "name": "FENGYUN 1C DEB", "group": "fengyun-1c-debris", "lat": -74.17523080300862, "lon": -162.6118469691786, "alt_km": 960.416801939863, "timestamp": "2025-12-19T04:59:48.595612+00:00", "meta": {"OBJECT_NAME": "FENGYUN 1C DEB", "OBJECT_ID": "1999-025EQG", "EPOCH": "2025-12-18T09:16:04.268928", "MEAN_MOTION": 14.25293923, "ECCENTRICITY": 0.02228188, "INCLINATION": 98.6596, "RA_OF_ASC_NODE": 49.1015, "ARG_OF_PERICENTER": 55.0123, "MEAN_ANOMALY": 307.1755, "EPHEMERIS_TYPE": 0, "CLASSIFICATION_TYPE": "U", "NORAD_CAT_ID": 38135, "ELEMENT_SET_NO": 999, "REV_AT_EPOCH": 61121, "BSTAR": 0.00031139501, "MEAN_MOTION_DOT": 9.03e-06, "MEAN_MOTION_DDOT": 0}, "tle": {"line1": "1 38135U 99025EQG 25352.38616052  .00000903  00000+0  31140-3 0  9996", "line2": "2 38135  98.6596  49.1015 0222818  55.0123 307.1755 14.25293923611213"}}, "geometry": {"type": "Point", "coordinates": [-162.6118469691786, -74.17523080300862]}}]}